{"type": "FeatureCollection", "features": [{"type": "Feature", "properties": {"kampung": "Nanganae", "corridor_order": 1, "precision": "~110m village marker (generalized)"}, "geometry": {"type": "Point", "coordinates": [119.872, -8.549]}}, {"type": "Feature", "properties": {"kampung": "Cumbi", "corridor_order": 2, "precision": "~110m village marker (generalized)"}, "geometry": {"type": "Point", "coordinates": [119.844, -8.595]}}, {"type": "Feature", "properties": {"kampung": "Kenari", "corridor_order": 3, "precision": "~110m village marker (generalized)"}, "geometry": {"type": "Point", "coordinates": [119.838, -8.617]}}, {"type": "Feature", "properties": {"kampung": "Soknar", "corridor_order": 4, "precision": "~110m village marker (generalized)"}, "geometry": {"type": "Point", "coordinates": [119.811, -8.658]}}, {"type": "Feature", "properties": {"kampung": "Golo Mori", "corridor_order": 5, "precision": "~110m village marker (generalized)"}, "geometry": {"type": "Point", "coordinates": [119.824, -8.69]}}]}