{"type": "FeatureCollection", "features": [{"type": "Feature", "properties": {"name": "Labuan Bajo to Golo Mori road", "source": "survey team (authoritative trace)", "length_km": 24.75, "points": 1008}, "geometry": {"type": "LineString", "coordinates": [[119.87006, -8.52564], [119.87003, -8.52568], [119.86991, -8.52582], [119.86971, -8.52606], [119.86965, -8.52613], [119.8696, -8.5262], [119.86959, -8.52623], [119.86958, -8.52627], [119.86957, -8.5263], [119.86958, -8.52633], [119.86959, -8.52637], [119.86961, -8.52642], [119.86981, -8.52674], [119.87005, -8.52719], [119.87006, -8.52721], [119.87033, -8.52761], [119.87069, -8.52814], [119.87095, -8.52852], [119.87104, -8.52867], [119.87105, -8.52868], [119.8712, -8.5289], [119.87146, -8.52925], [119.87161, -8.52945], [119.87163, -8.52948], [119.87189, -8.52982], [119.87191, -8.52984], [119.87202, -8.52998], [119.87213, -8.53013], [119.8722, -8.53022], [119.87247, -8.53063], [119.87252, -8.53073], [119.87262, -8.53088], [119.87262, -8.5309], [119.87271, -8.53104], [119.87278, -8.53118], [119.87284, -8.53133], [119.87291, -8.53147], [119.87302, -8.53167], [119.87313, -8.53184], [119.87319, -8.53193], [119.87329, -8.53209], [119.87339, -8.53224], [119.87348, -8.53233], [119.8736, -8.53246], [119.87397, -8.53283], [119.87415, -8.53301], [119.87419, -8.53306], [119.87432, -8.53319], [119.87433, -8.5332], [119.8745, -8.53338], [119.87456, -8.53345], [119.87468, -8.53359], [119.87469, -8.53359], [119.875, -8.53395], [119.87503, -8.53398], [119.87506, -8.53403], [119.87516, -8.53417], [119.87529, -8.53444], [119.87539, -8.53464], [119.87561, -8.53508], [119.87595, -8.53579], [119.87629, -8.53645], [119.87631, -8.53648], [119.87664, -8.53712], [119.87667, -8.53717], [119.87672, -8.53728], [119.87679, -8.53742], [119.8768, -8.53744], [119.87683, -8.53752], [119.87687, -8.53762], [119.87688, -8.53767], [119.87689, -8.53774], [119.8769, -8.53781], [119.8769, -8.53792], [119.8769, -8.53811], [119.8769, -8.53815], [119.8769, -8.5383], [119.8769, -8.53833], [119.87692, -8.53859], [119.87693, -8.53887], [119.87692, -8.53894], [119.8769, -8.53901], [119.87687, -8.53917], [119.87683, -8.53934], [119.87677, -8.53951], [119.8767, -8.53975], [119.87666, -8.53994], [119.87665, -8.54], [119.87662, -8.54014], [119.87661, -8.54018], [119.8765, -8.54071], [119.87646, -8.54088], [119.87646, -8.54089], [119.87634, -8.54139], [119.8763, -8.54159], [119.87601, -8.54296], [119.87587, -8.54357], [119.87565, -8.54434], [119.87565, -8.54435], [119.87559, -8.54451], [119.87555, -8.54461], [119.87542, -8.54488], [119.87518, -8.54523], [119.87498, -8.5455], [119.87437, -8.54642], [119.87422, -8.54663], [119.87404, -8.54685], [119.87393, -8.54696], [119.87389, -8.54699], [119.87378, -8.5471], [119.87324, -8.54751], [119.87316, -8.54759], [119.87314, -8.54761], [119.87312, -8.54763], [119.87309, -8.54767], [119.87306, -8.54772], [119.87294, -8.54795], [119.8729, -8.54801], [119.87289, -8.54804], [119.87283, -8.54813], [119.87269, -8.54831], [119.87256, -8.54847], [119.87248, -8.54856], [119.87232, -8.54871], [119.87226, -8.54877], [119.87216, -8.54884], [119.87182, -8.54911], [119.87172, -8.54918], [119.87162, -8.54924], [119.871, -8.54962], [119.87094, -8.54966], [119.87087, -8.54971], [119.87083, -8.54975], [119.87062, -8.54996], [119.87014, -8.55041], [119.86991, -8.55063], [119.86958, -8.55098], [119.86938, -8.55119], [119.86931, -8.55126], [119.8693, -8.55127], [119.86929, -8.55128], [119.86909, -8.55154], [119.86895, -8.55172], [119.86884, -8.55185], [119.86853, -8.55221], [119.86831, -8.55252], [119.86809, -8.55284], [119.86805, -8.55291], [119.86786, -8.55325], [119.86782, -8.55332], [119.86763, -8.55363], [119.86752, -8.55383], [119.86745, -8.55397], [119.86737, -8.55415], [119.86729, -8.55435], [119.86722, -8.55451], [119.86719, -8.55457], [119.86718, -8.55466], [119.86716, -8.55477], [119.86711, -8.555], [119.86707, -8.55518], [119.86706, -8.55521], [119.86706, -8.55522], [119.86704, -8.55527], [119.86702, -8.55536], [119.86701, -8.55538], [119.86698, -8.5555], [119.8669, -8.55569], [119.86688, -8.55574], [119.86682, -8.55584], [119.8668, -8.55595], [119.86678, -8.55603], [119.86677, -8.55606], [119.86677, -8.55607], [119.8667, -8.5563], [119.86666, -8.55647], [119.86654, -8.55671], [119.8664, -8.55719], [119.86636, -8.5574], [119.86634, -8.5575], [119.86633, -8.55758], [119.8663, -8.55774], [119.86613, -8.55844], [119.86605, -8.55872], [119.86601, -8.55887], [119.86583, -8.5594], [119.8657, -8.55984], [119.86564, -8.56004], [119.86556, -8.56022], [119.8654, -8.56057], [119.86534, -8.5607], [119.86527, -8.56082], [119.8652, -8.56092], [119.86515, -8.56098], [119.86512, -8.56104], [119.8651, -8.56109], [119.86501, -8.56131], [119.86496, -8.56148], [119.86495, -8.56154], [119.86494, -8.56167], [119.86495, -8.56182], [119.86495, -8.56206], [119.86493, -8.56236], [119.86491, -8.56252], [119.86486, -8.56272], [119.86483, -8.56283], [119.86477, -8.563], [119.8647, -8.56315], [119.86458, -8.56334], [119.86438, -8.5636], [119.86421, -8.56381], [119.86411, -8.56394], [119.86397, -8.5642], [119.86387, -8.56433], [119.86379, -8.56443], [119.8637, -8.56451], [119.86369, -8.56452], [119.86347, -8.56474], [119.86343, -8.56479], [119.86339, -8.56485], [119.86334, -8.56494], [119.86329, -8.56507], [119.86326, -8.56519], [119.86325, -8.56529], [119.86325, -8.5654], [119.86328, -8.56556], [119.86333, -8.56567], [119.86345, -8.56589], [119.86386, -8.56647], [119.86412, -8.56685], [119.86421, -8.56698], [119.86429, -8.56714], [119.86431, -8.56718], [119.86435, -8.56731], [119.8644, -8.56747], [119.86442, -8.56755], [119.86442, -8.56764], [119.86441, -8.56778], [119.86438, -8.56787], [119.86433, -8.56801], [119.86426, -8.56818], [119.86419, -8.56832], [119.864, -8.56867], [119.86388, -8.56888], [119.86373, -8.56911], [119.86345, -8.56951], [119.86324, -8.56981], [119.8632, -8.56988], [119.86316, -8.56996], [119.86314, -8.57002], [119.86313, -8.57005], [119.8631, -8.57015], [119.8631, -8.57019], [119.86309, -8.57025], [119.86309, -8.5704], [119.8631, -8.5707], [119.86313, -8.57122], [119.86314, -8.57127], [119.86315, -8.57165], [119.86313, -8.57198], [119.86307, -8.57229], [119.86299, -8.57253], [119.86298, -8.57254], [119.86288, -8.57281], [119.86268, -8.57335], [119.86243, -8.57424], [119.86243, -8.5743], [119.8624, -8.5744], [119.8623, -8.57477], [119.86215, -8.57533], [119.8619, -8.5762], [119.86182, -8.57644], [119.86178, -8.57653], [119.86169, -8.57667], [119.86139, -8.57702], [119.86122, -8.57722], [119.86114, -8.57732], [119.86109, -8.57742], [119.86106, -8.57749], [119.86104, -8.57754], [119.86102, -8.57761], [119.86101, -8.5777], [119.86098, -8.57806], [119.86097, -8.57831], [119.86097, -8.57834], [119.86093, -8.57891], [119.86093, -8.57895], [119.86091, -8.57912], [119.86089, -8.57938], [119.86085, -8.57971], [119.86082, -8.57982], [119.86073, -8.58008], [119.8607, -8.58013], [119.86066, -8.58022], [119.86062, -8.58029], [119.86046, -8.58051], [119.86031, -8.58067], [119.86017, -8.58079], [119.85999, -8.58091], [119.85951, -8.58123], [119.85929, -8.58138], [119.85871, -8.58177], [119.85854, -8.58188], [119.85819, -8.58212], [119.85789, -8.58228], [119.8578, -8.5823], [119.8573, -8.58263], [119.85656, -8.58302], [119.85617, -8.58323], [119.85579, -8.58341], [119.8556, -8.58352], [119.8554, -8.58361], [119.85495, -8.58377], [119.85413, -8.58397], [119.85374, -8.58409], [119.85329, -8.5843], [119.85296, -8.58452], [119.85252, -8.58485], [119.85202, -8.58526], [119.85201, -8.58527], [119.85165, -8.5856], [119.85138, -8.58586], [119.85114, -8.58613], [119.85099, -8.58637], [119.85085, -8.58659], [119.85084, -8.58662], [119.85071, -8.58691], [119.85065, -8.58707], [119.85059, -8.58729], [119.85053, -8.58765], [119.85048, -8.58819], [119.85045, -8.58856], [119.85045, -8.58891], [119.85046, -8.58964], [119.85046, -8.58999], [119.85047, -8.59104], [119.85049, -8.59128], [119.85047, -8.59149], [119.85045, -8.5916], [119.85041, -8.59175], [119.85041, -8.59176], [119.85034, -8.59189], [119.85021, -8.59203], [119.85007, -8.59215], [119.85004, -8.59217], [119.84972, -8.5923], [119.84942, -8.5923], [119.84921, -8.59227], [119.84903, -8.59224], [119.84862, -8.59219], [119.84833, -8.5922], [119.84807, -8.59227], [119.84783, -8.59239], [119.84766, -8.59251], [119.84758, -8.59256], [119.84722, -8.59283], [119.84706, -8.59296], [119.84675, -8.59309], [119.84667, -8.59305], [119.84661, -8.59305], [119.84653, -8.59303], [119.84647, -8.59301], [119.84641, -8.59299], [119.84635, -8.59298], [119.84631, -8.59297], [119.84629, -8.59296], [119.84619, -8.59295], [119.84612, -8.59294], [119.84603, -8.59294], [119.84591, -8.59295], [119.84579, -8.59297], [119.84555, -8.59304], [119.84545, -8.59306], [119.84533, -8.59308], [119.84527, -8.5931], [119.84511, -8.59315], [119.8451, -8.59315], [119.84507, -8.59316], [119.84503, -8.59319], [119.84499, -8.59323], [119.84487, -8.59337], [119.8448, -8.59347], [119.84475, -8.59356], [119.84465, -8.59372], [119.84461, -8.59378], [119.84458, -8.59383], [119.84453, -8.59389], [119.84449, -8.59394], [119.84443, -8.594], [119.84439, -8.59403], [119.84432, -8.59406], [119.84425, -8.59409], [119.84403, -8.59417], [119.84401, -8.59418], [119.84373, -8.59428], [119.8437, -8.59429], [119.8437, -8.59435], [119.8437, -8.59439], [119.84371, -8.59443], [119.84372, -8.59445], [119.84376, -8.59453], [119.84379, -8.59461], [119.84379, -8.59467], [119.84379, -8.5947], [119.84378, -8.59475], [119.84373, -8.59485], [119.84368, -8.59495], [119.84367, -8.59496], [119.84367, -8.59497], [119.84366, -8.59499], [119.84365, -8.59501], [119.84365, -8.59503], [119.84363, -8.59507], [119.84363, -8.59514], [119.84362, -8.59518], [119.8436, -8.59534], [119.84358, -8.59543], [119.84354, -8.59554], [119.84353, -8.59566], [119.84352, -8.59579], [119.8435, -8.59585], [119.84349, -8.59587], [119.84339, -8.59606], [119.84332, -8.59615], [119.84328, -8.5962], [119.8432, -8.5963], [119.84319, -8.59634], [119.84318, -8.59637], [119.84318, -8.5964], [119.84304, -8.59644], [119.84273, -8.59666], [119.8427, -8.59668], [119.84239, -8.59685], [119.84226, -8.59697], [119.84218, -8.59716], [119.84217, -8.59747], [119.84209, -8.59805], [119.84208, -8.59818], [119.84207, -8.59831], [119.84208, -8.59849], [119.84217, -8.59876], [119.84226, -8.59905], [119.84236, -8.59934], [119.84249, -8.59974], [119.84251, -8.5998], [119.84253, -8.59991], [119.84255, -8.60003], [119.84255, -8.60009], [119.84256, -8.60032], [119.84253, -8.60055], [119.84242, -8.60082], [119.84222, -8.60108], [119.84218, -8.60114], [119.8421, -8.60121], [119.84196, -8.60133], [119.84179, -8.60149], [119.84155, -8.60169], [119.84138, -8.60183], [119.84127, -8.60192], [119.8412, -8.60199], [119.84106, -8.60216], [119.84104, -8.6022], [119.84097, -8.60236], [119.84091, -8.60248], [119.8407, -8.60291], [119.84066, -8.60301], [119.84058, -8.60318], [119.84045, -8.60349], [119.84044, -8.60351], [119.84033, -8.60392], [119.84026, -8.6042], [119.84026, -8.60425], [119.84024, -8.60438], [119.84022, -8.60456], [119.84021, -8.60458], [119.84019, -8.60474], [119.84017, -8.60486], [119.84013, -8.6051], [119.84006, -8.60533], [119.83982, -8.60581], [119.83977, -8.60591], [119.83975, -8.60596], [119.83974, -8.60598], [119.8397, -8.60607], [119.83957, -8.60633], [119.83943, -8.60657], [119.8394, -8.60662], [119.83936, -8.6067], [119.83924, -8.60691], [119.83919, -8.60702], [119.83911, -8.6072], [119.83905, -8.60735], [119.83897, -8.60754], [119.83885, -8.60786], [119.83867, -8.60835], [119.83863, -8.60847], [119.83857, -8.60864], [119.83839, -8.60915], [119.83837, -8.60922], [119.83826, -8.60949], [119.83819, -8.60965], [119.83814, -8.60978], [119.83799, -8.61014], [119.83789, -8.6103], [119.83785, -8.61037], [119.83774, -8.61049], [119.83766, -8.61058], [119.83764, -8.6106], [119.83744, -8.61075], [119.83737, -8.6108], [119.83726, -8.61088], [119.83707, -8.611], [119.83676, -8.61117], [119.83648, -8.6113], [119.83642, -8.61134], [119.83616, -8.61148], [119.83597, -8.61158], [119.83581, -8.61171], [119.8356, -8.6119], [119.83555, -8.61196], [119.83549, -8.61203], [119.83541, -8.61214], [119.83525, -8.61241], [119.8352, -8.61249], [119.83516, -8.61257], [119.8351, -8.61271], [119.83503, -8.61296], [119.83497, -8.61332], [119.83498, -8.61348], [119.83498, -8.61375], [119.83503, -8.61433], [119.83504, -8.6144], [119.83506, -8.61459], [119.83508, -8.61489], [119.83511, -8.6151], [119.83517, -8.6154], [119.83524, -8.61559], [119.83538, -8.61579], [119.83548, -8.61594], [119.8355, -8.61597], [119.83561, -8.61607], [119.83586, -8.61627], [119.83653, -8.61657], [119.83655, -8.61657], [119.83656, -8.61657], [119.83658, -8.61657], [119.8366, -8.61657], [119.83661, -8.61658], [119.83663, -8.61658], [119.83665, -8.61659], [119.83666, -8.6166], [119.83667, -8.6166], [119.83669, -8.61662], [119.8367, -8.61663], [119.83671, -8.61664], [119.83672, -8.61665], [119.83673, -8.61667], [119.83674, -8.61668], [119.83675, -8.6167], [119.83675, -8.61671], [119.83675, -8.61673], [119.83676, -8.61675], [119.83676, -8.61678], [119.83676, -8.61679], [119.83675, -8.61681], [119.83675, -8.61683], [119.83674, -8.61684], [119.83673, -8.61686], [119.83673, -8.61687], [119.83672, -8.61688], [119.8367, -8.6169], [119.83669, -8.61691], [119.83666, -8.61724], [119.83665, -8.61743], [119.83664, -8.61746], [119.83663, -8.61748], [119.83663, -8.61757], [119.83661, -8.61766], [119.8366, -8.61773], [119.83658, -8.61782], [119.83655, -8.61789], [119.8365, -8.61801], [119.8364, -8.61821], [119.83634, -8.61832], [119.83626, -8.61846], [119.83607, -8.61877], [119.83591, -8.61901], [119.83564, -8.61934], [119.83536, -8.61966], [119.83496, -8.62012], [119.83473, -8.62039], [119.83453, -8.62066], [119.83446, -8.62077], [119.83442, -8.62087], [119.83442, -8.62088], [119.8344, -8.62096], [119.8344, -8.62101], [119.8344, -8.62105], [119.8344, -8.62107], [119.83442, -8.62114], [119.83445, -8.62122], [119.83458, -8.62138], [119.83464, -8.62146], [119.83467, -8.62152], [119.83469, -8.62158], [119.8347, -8.62165], [119.83471, -8.62172], [119.8347, -8.62187], [119.83468, -8.622], [119.83461, -8.62224], [119.83453, -8.62249], [119.83433, -8.62295], [119.83418, -8.6233], [119.83417, -8.62332], [119.8341, -8.62351], [119.83404, -8.62374], [119.83398, -8.6242], [119.83394, -8.6245], [119.83392, -8.62457], [119.83388, -8.62472], [119.83383, -8.62482], [119.83373, -8.62494], [119.83373, -8.62495], [119.83357, -8.62508], [119.83256, -8.6258], [119.83196, -8.62621], [119.83177, -8.62631], [119.83167, -8.62637], [119.83154, -8.62641], [119.8314, -8.62644], [119.83129, -8.62645], [119.83072, -8.62647], [119.8306, -8.62648], [119.83033, -8.62649], [119.83015, -8.62651], [119.83001, -8.62653], [119.82986, -8.62656], [119.82948, -8.62668], [119.82919, -8.62677], [119.82897, -8.62683], [119.82874, -8.62687], [119.82859, -8.6269], [119.82843, -8.62692], [119.82792, -8.62702], [119.82735, -8.62713], [119.82701, -8.62723], [119.82647, -8.6274], [119.82571, -8.62765], [119.82551, -8.6277], [119.8254, -8.62772], [119.82529, -8.62774], [119.8252, -8.62775], [119.82511, -8.62774], [119.82499, -8.62773], [119.82492, -8.62772], [119.8248, -8.62769], [119.82466, -8.62764], [119.82452, -8.62757], [119.82409, -8.62732], [119.82396, -8.62726], [119.82383, -8.62722], [119.82371, -8.62719], [119.82359, -8.62718], [119.82343, -8.62719], [119.82342, -8.62719], [119.82326, -8.6272], [119.82313, -8.62722], [119.82295, -8.62723], [119.82269, -8.62723], [119.82249, -8.62722], [119.82234, -8.6272], [119.82233, -8.6272], [119.8222, -8.62718], [119.82215, -8.62718], [119.82202, -8.62718], [119.82143, -8.62714], [119.82127, -8.62711], [119.82116, -8.62708], [119.82106, -8.62704], [119.82095, -8.62696], [119.82078, -8.6268], [119.82067, -8.62665], [119.8206, -8.62654], [119.82055, -8.62643], [119.82049, -8.62625], [119.82048, -8.62621], [119.82041, -8.62596], [119.82035, -8.62569], [119.82033, -8.62556], [119.82025, -8.62531], [119.82021, -8.62522], [119.82013, -8.62512], [119.82004, -8.62503], [119.81992, -8.62492], [119.81977, -8.62484], [119.8196, -8.62478], [119.8196, -8.62477], [119.81926, -8.62469], [119.81898, -8.62462], [119.81873, -8.62457], [119.8185, -8.62457], [119.81834, -8.62457], [119.81817, -8.62461], [119.81813, -8.62462], [119.81794, -8.62469], [119.81781, -8.62476], [119.81766, -8.62484], [119.81746, -8.62494], [119.81718, -8.62507], [119.81701, -8.62513], [119.81685, -8.62519], [119.8165, -8.62533], [119.81627, -8.62542], [119.81585, -8.6256], [119.81568, -8.62569], [119.81558, -8.62574], [119.81549, -8.62581], [119.81543, -8.62585], [119.81539, -8.6259], [119.81503, -8.62632], [119.81501, -8.62634], [119.81491, -8.62645], [119.8147, -8.62668], [119.81467, -8.62672], [119.81456, -8.62687], [119.81446, -8.627], [119.81445, -8.62701], [119.8143, -8.62721], [119.81424, -8.6273], [119.81422, -8.62733], [119.81416, -8.62747], [119.81407, -8.62772], [119.81389, -8.62824], [119.81386, -8.62831], [119.81382, -8.62841], [119.8137, -8.62873], [119.81367, -8.62882], [119.81358, -8.62908], [119.81356, -8.62916], [119.81352, -8.62933], [119.81348, -8.62946], [119.81347, -8.62951], [119.81345, -8.62964], [119.81343, -8.62977], [119.81342, -8.62986], [119.81342, -8.62991], [119.81341, -8.62998], [119.81341, -8.63004], [119.81341, -8.63008], [119.8134, -8.63015], [119.81338, -8.63022], [119.81338, -8.63024], [119.81334, -8.63037], [119.81333, -8.63039], [119.8133, -8.6305], [119.81321, -8.63074], [119.81313, -8.63089], [119.81305, -8.63101], [119.81302, -8.63104], [119.81292, -8.63114], [119.81289, -8.63116], [119.81286, -8.6312], [119.81253, -8.63136], [119.81213, -8.63158], [119.81205, -8.63163], [119.81197, -8.63173], [119.8119, -8.63182], [119.81185, -8.63192], [119.8118, -8.63201], [119.81177, -8.6321], [119.81174, -8.63224], [119.81174, -8.6324], [119.81175, -8.63255], [119.81177, -8.63263], [119.8118, -8.63275], [119.81189, -8.63291], [119.81196, -8.63301], [119.81206, -8.63311], [119.81229, -8.63332], [119.81229, -8.63333], [119.81244, -8.63349], [119.81254, -8.63365], [119.81259, -8.63377], [119.81265, -8.63388], [119.8127, -8.63405], [119.81272, -8.63422], [119.81271, -8.63456], [119.8127, -8.63465], [119.81266, -8.63498], [119.81266, -8.635], [119.81257, -8.63535], [119.81248, -8.63555], [119.8124, -8.63575], [119.81231, -8.63605], [119.81228, -8.63625], [119.81227, -8.63656], [119.81227, -8.63657], [119.81227, -8.6368], [119.81229, -8.63717], [119.8123, -8.6374], [119.81229, -8.63753], [119.81227, -8.63764], [119.81226, -8.63767], [119.81223, -8.63777], [119.8122, -8.63782], [119.81211, -8.63795], [119.81199, -8.63806], [119.81148, -8.63834], [119.81121, -8.63847], [119.81102, -8.6386], [119.81081, -8.63878], [119.81065, -8.639], [119.81051, -8.63917], [119.81044, -8.63927], [119.81029, -8.63947], [119.81013, -8.63961], [119.80996, -8.63977], [119.80977, -8.63994], [119.80966, -8.64004], [119.80959, -8.6401], [119.80952, -8.64016], [119.80939, -8.64027], [119.80927, -8.64039], [119.80921, -8.64049], [119.80912, -8.64064], [119.80908, -8.64075], [119.80902, -8.64093], [119.80899, -8.64107], [119.80897, -8.64121], [119.80893, -8.6417], [119.80892, -8.64188], [119.80894, -8.64204], [119.80897, -8.64224], [119.80902, -8.64245], [119.80936, -8.64346], [119.8095, -8.64385], [119.80955, -8.64402], [119.80959, -8.64424], [119.80964, -8.64489], [119.80972, -8.6457], [119.80974, -8.64601], [119.80972, -8.64624], [119.80954, -8.64725], [119.8095, -8.64756], [119.80948, -8.64778], [119.80946, -8.64802], [119.80943, -8.64851], [119.80944, -8.64877], [119.80947, -8.649], [119.80954, -8.64919], [119.80961, -8.64937], [119.80962, -8.6494], [119.80966, -8.64954], [119.80973, -8.64977], [119.80978, -8.65012], [119.80984, -8.65223], [119.80984, -8.65239], [119.80989, -8.65267], [119.80999, -8.65302], [119.81003, -8.6531], [119.81029, -8.65377], [119.81033, -8.65385], [119.81062, -8.65471], [119.8107, -8.655], [119.81076, -8.65526], [119.8108, -8.65565], [119.8108, -8.65568], [119.81082, -8.65588], [119.81084, -8.65646], [119.81086, -8.65658], [119.81089, -8.65672], [119.81098, -8.65698], [119.81105, -8.65713], [119.81115, -8.65729], [119.81136, -8.65753], [119.81146, -8.65766], [119.81157, -8.65778], [119.81194, -8.65827], [119.81204, -8.65845], [119.81214, -8.65869], [119.81224, -8.6591], [119.81242, -8.65974], [119.81246, -8.65992], [119.81252, -8.66023], [119.81261, -8.66076], [119.8127, -8.66126], [119.81281, -8.662], [119.81282, -8.66219], [119.81282, -8.66237], [119.81282, -8.66253], [119.81279, -8.66264], [119.81274, -8.66275], [119.81268, -8.66284], [119.81248, -8.66301], [119.81228, -8.66313], [119.81221, -8.66319], [119.81203, -8.66332], [119.81192, -8.6634], [119.81183, -8.66348], [119.81178, -8.66356], [119.81171, -8.66369], [119.81169, -8.66372], [119.81166, -8.66392], [119.81165, -8.66402], [119.81164, -8.6642], [119.81164, -8.66476], [119.81165, -8.66521], [119.81167, -8.66548], [119.81169, -8.66566], [119.81172, -8.66601], [119.81174, -8.66624], [119.81176, -8.66637], [119.81184, -8.66706], [119.81188, -8.66722], [119.81195, -8.6674], [119.81205, -8.66757], [119.81215, -8.66771], [119.81241, -8.66799], [119.81244, -8.66801], [119.81276, -8.66834], [119.81279, -8.66838], [119.81286, -8.66847], [119.81294, -8.66859], [119.813, -8.66871], [119.81309, -8.66893], [119.81323, -8.66936], [119.81343, -8.66995], [119.81346, -8.67006], [119.81352, -8.67031], [119.81356, -8.67058], [119.81358, -8.67075], [119.8136, -8.67095], [119.81363, -8.67141], [119.81364, -8.67182], [119.81364, -8.67183], [119.81364, -8.67202], [119.81363, -8.67219], [119.81362, -8.67229], [119.8136, -8.67238], [119.81355, -8.67254], [119.81349, -8.67266], [119.81343, -8.67278], [119.81336, -8.67295], [119.81332, -8.67304], [119.8133, -8.67316], [119.8133, -8.67325], [119.81331, -8.67334], [119.81332, -8.67341], [119.81335, -8.6735], [119.81338, -8.67357], [119.81345, -8.67369], [119.81354, -8.67378], [119.81377, -8.67404], [119.81382, -8.6741], [119.81397, -8.67428], [119.81401, -8.67432], [119.81415, -8.67443], [119.81438, -8.67457], [119.81461, -8.67473], [119.8148, -8.67475], [119.81481, -8.67474], [119.81483, -8.67473], [119.81485, -8.67472], [119.81487, -8.67472], [119.81489, -8.67471], [119.81491, -8.67471], [119.81493, -8.67471], [119.81495, -8.67471], [119.81497, -8.67471], [119.81498, -8.67472], [119.815, -8.67473], [119.81502, -8.67474], [119.81504, -8.67475], [119.81505, -8.67476], [119.81507, -8.67477], [119.81508, -8.67478], [119.81509, -8.6748], [119.8151, -8.67482], [119.81511, -8.67483], [119.81512, -8.67485], [119.81513, -8.67487], [119.81513, -8.67489], [119.81513, -8.6749], [119.8155156839405, -8.675320346972192], [119.8161266899879, -8.675740109141772], [119.8172566648894, -8.676527690391966], [119.818286828991, -8.677427086401769], [119.8196038036112, -8.678539147333899], [119.8200244055825, -8.678939925794557], [119.8203628434204, -8.679177009617627], [119.8206103068875, -8.67939773425466], [119.8228343315391, -8.681391721299306], [119.8235953282954, -8.682429369880786], [119.8238366792433, -8.6830302903496], [119.8241713843262, -8.684258521533724], [119.8242774767225, -8.688142212417805], [119.8241068534628, -8.689517038435548], [119.8240050799237, -8.689980219468834], [119.8237598755338, -8.690923387330555], [119.8234343592037, -8.691706725175951], [119.8229557883913, -8.69223793406496], [119.8222795123819, -8.69287875281492], [119.8219358764199, -8.693223405816655], [119.8217811923442, -8.693475375489053], [119.8216560747471, -8.693750111920076], [119.8215742836271, -8.693999443894512], [119.8213706273172, -8.694219667930204], [119.8213039261132, -8.694347694623344]]}}]}