{"type": "FeatureCollection", "features": [{"type": "Feature", "properties": {"name": "Labuan Bajo\u2013Golo Mori corridor (southern segment)", "source": "OpenStreetMap via Overpass", "method": "graph shortest-path over OSM corridor-class ways", "length_km": 20.26, "covers": "Golo Mori terminus \u2192 past Cumbi (~lat -8.572)", "status": "draft-refineable", "todo": "northern link into Labuan Bajo (Trans Flores); confirm paved asphalt-end vs. ITDC gate from satellite"}, "geometry": {"type": "LineString", "coordinates": [[119.823809, -8.690766], [119.824053, -8.689557], [119.824118, -8.689231], [119.82422, -8.688679], [119.824247, -8.688539], [119.824273, -8.6883], [119.824292, -8.688074], [119.824249, -8.687815], [119.824217, -8.687537], [119.824209, -8.6872], [119.82415, -8.686102], [119.824085, -8.684515], [119.824064, -8.684222], [119.824025, -8.683997], [119.823993, -8.683779], [119.823955, -8.683578], [119.82386, -8.68327], [119.823762, -8.682994], [119.823691, -8.682805], [119.823615, -8.682647], [119.823497, -8.682419], [119.823326, -8.682138], [119.823182, -8.681894], [119.823005, -8.681581], [119.822892, -8.681406], [119.822722, -8.681201], [119.822543, -8.681026], [119.822259, -8.680779], [119.821971, -8.680527], [119.821512, -8.680114], [119.821249, -8.67987], [119.820973, -8.679658], [119.820732, -8.679494], [119.82032, -8.679179], [119.820027, -8.678959], [119.819907, -8.678856], [119.819799, -8.67876], [119.819676, -8.678572], [119.819373, -8.678301], [119.818928, -8.677949], [119.818228, -8.677384], [119.817949, -8.677116], [119.817611, -8.676798], [119.817131, -8.676461], [119.816514, -8.676013], [119.815442, -8.675224], [119.815113, -8.675011], [119.814611, -8.674694], [119.814228, -8.674479], [119.814006, -8.674349], [119.813853, -8.674194], [119.813801, -8.674132], [119.81376, -8.674064], [119.813746, -8.674005], [119.813735, -8.673958], [119.813703, -8.673887], [119.813628, -8.673847], [119.813524, -8.673824], [119.813432, -8.673789], [119.813339, -8.673721], [119.813291, -8.673631], [119.813258, -8.673441], [119.813231, -8.673347], [119.813231, -8.673265], [119.813261, -8.67316], [119.813306, -8.673012], [119.813528, -8.672614], [119.813581, -8.67251], [119.813605, -8.672451], [119.813617, -8.67241], [119.813636, -8.672203], [119.813645, -8.67181], [119.813641, -8.671568], [119.81364, -8.67137], [119.813626, -8.67112], [119.813599, -8.670848], [119.813545, -8.670572], [119.813453, -8.670196], [119.813393, -8.669939], [119.813322, -8.6697], [119.813253, -8.669455], [119.813097, -8.66904], [119.813007, -8.66876], [119.812961, -8.66854], [119.812922, -8.668391], [119.812855, -8.668269], [119.81278, -8.668187], [119.812696, -8.668118], [119.812551, -8.66802], [119.812337, -8.667872], [119.812217, -8.667758], [119.812097, -8.667581], [119.811998, -8.667396], [119.811888, -8.667173], [119.81182, -8.667036], [119.811775, -8.666879], [119.811768, -8.666739], [119.811793, -8.666543], [119.811794, -8.666313], [119.811789, -8.666124], [119.811761, -8.665899], [119.811735, -8.665708], [119.81171, -8.665377], [119.811696, -8.665203], [119.811686, -8.665076], [119.811707, -8.664832], [119.811702, -8.664513], [119.811694, -8.664158], [119.811871, -8.663629], [119.811911, -8.663624], [119.811946, -8.663592], [119.811983, -8.663542], [119.81202, -8.663477], [119.812069, -8.663376], [119.812113, -8.663266], [119.812177, -8.663178], [119.812289, -8.663095], [119.812418, -8.663028], [119.812512, -8.662964], [119.812618, -8.662901], [119.812697, -8.662835], [119.812754, -8.662726], [119.812775, -8.662617], [119.812799, -8.662408], [119.812812, -8.661961], [119.812781, -8.661647], [119.812729, -8.661241], [119.812549, -8.660321], [119.812496, -8.660104], [119.812403, -8.659899], [119.812171, -8.6593], [119.812083, -8.659011], [119.812056, -8.65877], [119.812037, -8.658582], [119.811981, -8.658415], [119.811887, -8.658237], [119.81178, -8.658104], [119.811723, -8.657869], [119.811062, -8.656858], [119.810938, -8.655449], [119.81003, -8.652666], [119.810003, -8.652309], [119.809859, -8.649852], [119.809589, -8.648799], [119.809575, -8.647903], [119.809685, -8.646377], [119.80972, -8.646124], [119.809742, -8.645912], [119.80978, -8.64572], [119.809785, -8.645623], [119.809757, -8.645476], [119.809643, -8.645096], [119.809567, -8.644849], [119.809551, -8.644662], [119.809578, -8.644351], [119.809602, -8.644203], [119.809604, -8.644137], [119.80958, -8.644042], [119.80949, -8.643692], [119.80932, -8.64327], [119.809171, -8.642913], [119.808998, -8.642536], [119.808912, -8.642233], [119.808888, -8.642055], [119.808876, -8.641912], [119.808865, -8.641669], [119.808825, -8.641497], [119.808813, -8.64142], [119.808818, -8.641379], [119.808833, -8.641315], [119.808922, -8.641009], [119.809025, -8.6407], [119.809029, -8.640525], [119.809042, -8.640461], [119.809068, -8.640398], [119.809096, -8.640339], [119.809151, -8.640261], [119.809234, -8.640171], [119.80938, -8.640048], [119.809555, -8.639924], [119.809675, -8.639839], [119.809824, -8.63977], [119.809889, -8.639752], [119.809944, -8.639722], [119.809989, -8.639698], [119.810028, -8.639659], [119.810099, -8.639611], [119.810172, -8.639517], [119.810265, -8.639376], [119.810359, -8.639219], [119.810449, -8.639066], [119.810514, -8.638946], [119.810574, -8.638868], [119.810671, -8.638771], [119.810739, -8.638706], [119.810759, -8.638663], [119.810782, -8.638632], [119.810814, -8.638612], [119.810912, -8.638528], [119.810962, -8.638471], [119.811053, -8.638421], [119.811147, -8.638359], [119.811245, -8.638297], [119.811339, -8.638235], [119.811403, -8.638186], [119.811513, -8.638124], [119.811657, -8.638057], [119.811796, -8.637991], [119.811932, -8.637932], [119.81205, -8.637878], [119.812099, -8.637852], [119.812128, -8.637835], [119.812145, -8.637818], [119.812158, -8.637786], [119.812182, -8.637738], [119.812203, -8.637655], [119.812211, -8.637546], [119.812229, -8.637385], [119.812259, -8.63727], [119.81228, -8.637163], [119.812291, -8.637117], [119.812296, -8.637064], [119.812311, -8.636966], [119.812302, -8.636854], [119.812274, -8.636712], [119.812263, -8.636542], [119.81226, -8.636348], [119.812234, -8.636103], [119.812243, -8.635977], [119.812262, -8.635917], [119.81229, -8.635825], [119.812365, -8.635701], [119.8124, -8.635638], [119.812437, -8.635599], [119.812464, -8.635559], [119.812506, -8.635503], [119.812536, -8.635475], [119.812549, -8.635448], [119.81256, -8.635421], [119.812569, -8.635389], [119.81257, -8.63536], [119.81256, -8.635305], [119.812562, -8.635214], [119.812558, -8.635082], [119.812568, -8.634955], [119.812583, -8.6348], [119.812595, -8.634662], [119.812612, -8.634479], [119.812667, -8.634229], [119.812704, -8.634123], [119.812731, -8.633976], [119.812789, -8.633714], [119.812791, -8.633684], [119.812789, -8.633661], [119.812782, -8.633634], [119.81273, -8.633564], [119.812657, -8.633445], [119.812524, -8.633343], [119.812203, -8.63315], [119.811906, -8.632949], [119.811788, -8.632846], [119.811738, -8.632785], [119.811718, -8.632747], [119.811702, -8.632709], [119.811682, -8.632601], [119.811684, -8.632535], [119.811701, -8.632483], [119.811753, -8.632377], [119.811894, -8.632168], [119.811992, -8.632021], [119.81205, -8.631936], [119.81207, -8.631863], [119.812073, -8.631801], [119.812071, -8.63174], [119.812067, -8.631674], [119.812068, -8.631623], [119.812081, -8.631586], [119.812112, -8.631555], [119.812156, -8.631533], [119.812242, -8.631518], [119.812341, -8.631524], [119.812496, -8.631564], [119.812714, -8.63161], [119.812988, -8.631669], [119.813119, -8.631665], [119.813309, -8.631687], [119.813417, -8.631673], [119.813469, -8.631654], [119.81351, -8.631628], [119.813587, -8.631584], [119.81365, -8.631527], [119.813715, -8.631461], [119.813766, -8.631401], [119.813821, -8.631334], [119.81385, -8.63127], [119.813902, -8.631176], [119.814, -8.631032], [119.814139, -8.630833], [119.814256, -8.630637], [119.814295, -8.630568], [119.81434, -8.630508], [119.814382, -8.630464], [119.814446, -8.630404], [119.814515, -8.630323], [119.814564, -8.630242], [119.814643, -8.630139], [119.814736, -8.630003], [119.814915, -8.629788], [119.815032, -8.629616], [119.815052, -8.629554], [119.815056, -8.629522], [119.815063, -8.629448], [119.815079, -8.629393], [119.815115, -8.629302], [119.815182, -8.629194], [119.815305, -8.629049], [119.815443, -8.628948], [119.815572, -8.628828], [119.815722, -8.62873], [119.815898, -8.62867], [119.816043, -8.628649], [119.816201, -8.628637], [119.816471, -8.628629], [119.816885, -8.628679], [119.817136, -8.628731], [119.817227, -8.628752], [119.817281, -8.628758], [119.817328, -8.628754], [119.817372, -8.628734], [119.817435, -8.628726], [119.817486, -8.628734], [119.817562, -8.62875], [119.817629, -8.628758], [119.817736, -8.628753], [119.817862, -8.628755], [119.81801, -8.628778], [119.81823, -8.628833], [119.818305, -8.628866], [119.818346, -8.62888], [119.818384, -8.628886], [119.818447, -8.628897], [119.818492, -8.628913], [119.818547, -8.62892], [119.818589, -8.628932], [119.81871, -8.628944], [119.818802, -8.628958], [119.818911, -8.628967], [119.819073, -8.628974], [119.819181, -8.628982], [119.819206, -8.628978], [119.819224, -8.628965], [119.819231, -8.628952], [119.819251, -8.628918], [119.819285, -8.628797], [119.819472, -8.628142], [119.819542, -8.627946], [119.819572, -8.62788], [119.819607, -8.627847], [119.819769, -8.627708], [119.819884, -8.627601], [119.819954, -8.627507], [119.820031, -8.627401], [119.820092, -8.627325], [119.820172, -8.627253], [119.820259, -8.627185], [119.82035, -8.627126], [119.820451, -8.627067], [119.820577, -8.627011], [119.82066, -8.626992], [119.820786, -8.626989], [119.820922, -8.626997], [119.821031, -8.627004], [119.821124, -8.627034], [119.821252, -8.627062], [119.821393, -8.627092], [119.821496, -8.627091], [119.821545, -8.627081], [119.82158, -8.62707], [119.821718, -8.626985], [119.82195, -8.626789], [119.82204, -8.626705], [119.822075, -8.626684], [119.822098, -8.626675], [119.822124, -8.626672], [119.822164, -8.626677], [119.822188, -8.626688], [119.822213, -8.626704], [119.822256, -8.626748], [119.822447, -8.627031], [119.822496, -8.627086], [119.822522, -8.627115], [119.822557, -8.627127], [119.822594, -8.627124], [119.822758, -8.627131], [119.822937, -8.627147], [119.82316, -8.627153], [119.823424, -8.627153], [119.823769, -8.627127], [119.823836, -8.627128], [119.82391, -8.627137], [119.824016, -8.62716], [119.824103, -8.627185], [119.824151, -8.627213], [119.824216, -8.627273], [119.824391, -8.627432], [119.824544, -8.627591], [119.824606, -8.627637], [119.824697, -8.627706], [119.824814, -8.627768], [119.824842, -8.627779], [119.824873, -8.627789], [119.824906, -8.627795], [119.824955, -8.627794], [119.825424, -8.627745], [119.825565, -8.627692], [119.825649, -8.627656], [119.825711, -8.627638], [119.825775, -8.627635], [119.82583, -8.627633], [119.825976, -8.627621], [119.826135, -8.627629], [119.826225, -8.627641], [119.826379, -8.627644], [119.826472, -8.627625], [119.826511, -8.627607], [119.826624, -8.627496], [119.826845, -8.627331], [119.827147, -8.627165], [119.827579, -8.626967], [119.827716, -8.62692], [119.827945, -8.626889], [119.828215, -8.626848], [119.828891, -8.626714], [119.829492, -8.626591], [119.829722, -8.626539], [119.829876, -8.626487], [119.830025, -8.626399], [119.830156, -8.626307], [119.830296, -8.626247], [119.830356, -8.626224], [119.830411, -8.626217], [119.83048, -8.626215], [119.830524, -8.626221], [119.830578, -8.626237], [119.830635, -8.626259], [119.830743, -8.626295], [119.830834, -8.626305], [119.830965, -8.626295], [119.831117, -8.626281], [119.831311, -8.626268], [119.831389, -8.626264], [119.831455, -8.626254], [119.831515, -8.626242], [119.831596, -8.626197], [119.83169, -8.626121], [119.831758, -8.626079], [119.831865, -8.626021], [119.832034, -8.625935], [119.832168, -8.625866], [119.832303, -8.625769], [119.83238, -8.625683], [119.83247, -8.625546], [119.832559, -8.625455], [119.832677, -8.625389], [119.832783, -8.625333], [119.832871, -8.625284], [119.83296, -8.625242], [119.833045, -8.625223], [119.833134, -8.62521], [119.833228, -8.625194], [119.833318, -8.62517], [119.833383, -8.62513], [119.833521, -8.625035], [119.833789, -8.624832], [119.833943, -8.624705], [119.834021, -8.624634], [119.834053, -8.624597], [119.834069, -8.624548], [119.834073, -8.624479], [119.834065, -8.624422], [119.834026, -8.624244], [119.83401, -8.624151], [119.833999, -8.624016], [119.834013, -8.62392], [119.834021, -8.623864], [119.834006, -8.623715], [119.83399, -8.623542], [119.833999, -8.623482], [119.834019, -8.623435], [119.834067, -8.623348], [119.834169, -8.623226], [119.834235, -8.623123], [119.834312, -8.62297], [119.834386, -8.622841], [119.834431, -8.622695], [119.834542, -8.622459], [119.834624, -8.6223], [119.834658, -8.622192], [119.83469, -8.622092], [119.834739, -8.621851], [119.834758, -8.62172], [119.834753, -8.621623], [119.834737, -8.621528], [119.83472, -8.621467], [119.834668, -8.621387], [119.834606, -8.621314], [119.834529, -8.621221], [119.834461, -8.621134], [119.834418, -8.621055], [119.834404, -8.620958], [119.834406, -8.620848], [119.834419, -8.620762], [119.834431, -8.620691], [119.834463, -8.620634], [119.834604, -8.62046], [119.834842, -8.620078], [119.83524, -8.619561], [119.835512, -8.619237], [119.835637, -8.619089], [119.835795, -8.618885], [119.835903, -8.618715], [119.835973, -8.618609], [119.836045, -8.618513], [119.836127, -8.618398], [119.836194, -8.618299], [119.836256, -8.618212], [119.836349, -8.618069], [119.836426, -8.617895], [119.836465, -8.617816], [119.836523, -8.617726], [119.836561, -8.617624], [119.836606, -8.617496], [119.836632, -8.617384], [119.836718, -8.616842], [119.836725, -8.616828], [119.836731, -8.616813], [119.83711, -8.616575], [119.837142, -8.616574], [119.837189, -8.61658], [119.837296, -8.616601], [119.837427, -8.616685], [119.837528, -8.616764], [119.837658, -8.616884], [119.837785, -8.617002], [119.837895, -8.61713], [119.837993, -8.617242], [119.838131, -8.617353], [119.83833, -8.617459], [119.838697, -8.617599], [119.838948, -8.617708], [119.839202, -8.61782], [119.839284, -8.617856], [119.839449, -8.617923], [119.839586, -8.617965], [119.839863, -8.618007], [119.840169, -8.618059], [119.84051, -8.618137], [119.840648, -8.61816], [119.840885, -8.618182], [119.840998, -8.618177], [119.841088, -8.618153], [119.841243, -8.618086], [119.841372, -8.618002], [119.841446, -8.617937], [119.841507, -8.617866], [119.841562, -8.617749], [119.841619, -8.617581], [119.841726, -8.61732], [119.841803, -8.617104], [119.84184, -8.617047], [119.841885, -8.617002], [119.841952, -8.616956], [119.842015, -8.616926], [119.842136, -8.616898], [119.842327, -8.616896], [119.842526, -8.616899], [119.842725, -8.616889], [119.842797, -8.616868], [119.842934, -8.616823], [119.843043, -8.61676], [119.843321, -8.616584], [119.843455, -8.616528], [119.843611, -8.616487], [119.843821, -8.616505], [119.843992, -8.616536], [119.844062, -8.616559], [119.844122, -8.616606], [119.844165, -8.616657], [119.844252, -8.616803], [119.84435, -8.616953], [119.844385, -8.616976], [119.844426, -8.616995], [119.844473, -8.616999], [119.844526, -8.616996], [119.844747, -8.616925], [119.844887, -8.616873], [119.844971, -8.616845], [119.84505, -8.616841], [119.84511, -8.616845], [119.845163, -8.616853], [119.845227, -8.61688], [119.845329, -8.616993], [119.845406, -8.617098], [119.845485, -8.617197], [119.845552, -8.617226], [119.845626, -8.617238], [119.845797, -8.617242], [119.846141, -8.617226], [119.846496, -8.617204], [119.84683, -8.617181], [119.84725, -8.617166], [119.847512, -8.617157], [119.847861, -8.617154], [119.847968, -8.617161], [119.848061, -8.617163], [119.848144, -8.617191], [119.848186, -8.617224], [119.848266, -8.617328], [119.848352, -8.617419], [119.848436, -8.617471], [119.848533, -8.617531], [119.848648, -8.617559], [119.848822, -8.617582], [119.848933, -8.617586], [119.84911, -8.617579], [119.849245, -8.617552], [119.8493, -8.617529], [119.849359, -8.617493], [119.849418, -8.617413], [119.849516, -8.617242], [119.849664, -8.616974], [119.849811, -8.616702], [119.849968, -8.61639], [119.850028, -8.616243], [119.85006, -8.616165], [119.850128, -8.615948], [119.850213, -8.615566], [119.850241, -8.615472], [119.850383, -8.615038], [119.850571, -8.614545], [119.850711, -8.614195], [119.850756, -8.614055], [119.850781, -8.614016], [119.850824, -8.613979], [119.850852, -8.613964], [119.851039, -8.61388], [119.85121, -8.613818], [119.851588, -8.61368], [119.851863, -8.613564], [119.851988, -8.613492], [119.852125, -8.613399], [119.852286, -8.613261], [119.852426, -8.613115], [119.852608, -8.612939], [119.852858, -8.612723], [119.853046, -8.612515], [119.853257, -8.612261], [119.853572, -8.61189], [119.853746, -8.611724], [119.853899, -8.611569], [119.853949, -8.6115], [119.853978, -8.611455], [119.853994, -8.611406], [119.854015, -8.611349], [119.854079, -8.61124], [119.854144, -8.611151], [119.854217, -8.611081], [119.85434, -8.611012], [119.854427, -8.610969], [119.854533, -8.610935], [119.854612, -8.610932], [119.854741, -8.610939], [119.854822, -8.610955], [119.854875, -8.610957], [119.854931, -8.610944], [119.855019, -8.610911], [119.855127, -8.610836], [119.855304, -8.610706], [119.855429, -8.610622], [119.855554, -8.610553], [119.855659, -8.610511], [119.855774, -8.61048], [119.856173, -8.610432], [119.856387, -8.610369], [119.856897, -8.609892], [119.857053, -8.609726], [119.857112, -8.609521], [119.857251, -8.609266], [119.857412, -8.609017], [119.85745, -8.608794], [119.857439, -8.608566], [119.857401, -8.60829], [119.857096, -8.607323], [119.857058, -8.607107], [119.857112, -8.607017], [119.857595, -8.606847], [119.857863, -8.606709], [119.857981, -8.606571], [119.858131, -8.606269], [119.858233, -8.606157], [119.858442, -8.606036], [119.858646, -8.605855], [119.859016, -8.605351], [119.859236, -8.605075], [119.859414, -8.604587], [119.859414, -8.604438], [119.859327, -8.604285], [119.859097, -8.603908], [119.85906, -8.603775], [119.859102, -8.603436], [119.859092, -8.603176], [119.859033, -8.602969], [119.858801, -8.602434], [119.858632, -8.602135], [119.858576, -8.601989], [119.858606, -8.601875], [119.858721, -8.601755], [119.858855, -8.601652], [119.859025, -8.601523], [119.859327, -8.601371], [119.859508, -8.60129], [119.85967, -8.601262], [119.859834, -8.601281], [119.85994, -8.601315], [119.860036, -8.60133], [119.860219, -8.601348], [119.860366, -8.601346], [119.860517, -8.601293], [119.860643, -8.601236], [119.860727, -8.601127], [119.860797, -8.600936], [119.860857, -8.600684], [119.860926, -8.600403], [119.861064, -8.600115], [119.861151, -8.599928], [119.861223, -8.599752], [119.861278, -8.599656], [119.861311, -8.599619], [119.861367, -8.599582], [119.861454, -8.599545], [119.861586, -8.599507], [119.861773, -8.599448], [119.861905, -8.599366], [119.862121, -8.59921], [119.862379, -8.599065], [119.862743, -8.598872], [119.86289, -8.598782], [119.863018, -8.598704], [119.863207, -8.598621], [119.863395, -8.598555], [119.863565, -8.598523], [119.863672, -8.598515], [119.863798, -8.598508], [119.863964, -8.598479], [119.864057, -8.59846], [119.864173, -8.598424], [119.86438, -8.598382], [119.864561, -8.598379], [119.86469, -8.598374], [119.864856, -8.598361], [119.864924, -8.598346], [119.864983, -8.598326], [119.865064, -8.598289], [119.865174, -8.598208], [119.865296, -8.598113], [119.865634, -8.597851], [119.865856, -8.597651], [119.866084, -8.597412], [119.866222, -8.597277], [119.866287, -8.597232], [119.866357, -8.597199], [119.866435, -8.597181], [119.866546, -8.597169], [119.866652, -8.597157], [119.866776, -8.597153], [119.866949, -8.597182], [119.867053, -8.597172], [119.867088, -8.597162], [119.867152, -8.597132], [119.867307, -8.597023], [119.867458, -8.59689], [119.867689, -8.596693], [119.867839, -8.59653], [119.867989, -8.596331], [119.86818, -8.596034], [119.868329, -8.595768], [119.868465, -8.595567], [119.868532, -8.595437], [119.868544, -8.59533], [119.868542, -8.595289], [119.868525, -8.595242], [119.868485, -8.595192], [119.868444, -8.595144], [119.868354, -8.595058], [119.868204, -8.594891], [119.868145, -8.5948], [119.868125, -8.594731], [119.868133, -8.594659], [119.86816, -8.594593], [119.868273, -8.594388], [119.868368, -8.594235], [119.868483, -8.594043], [119.868555, -8.593929], [119.868577, -8.593869], [119.868593, -8.593828], [119.868612, -8.593712], [119.868604, -8.593509], [119.86859, -8.593279], [119.868587, -8.593131], [119.868598, -8.593068], [119.868614, -8.593034], [119.868657, -8.592972], [119.868695, -8.592943], [119.868793, -8.592902], [119.868868, -8.59288], [119.869019, -8.592839], [119.869227, -8.592783], [119.869456, -8.592695], [119.86958, -8.592628], [119.869745, -8.592549], [119.870042, -8.592436], [119.870425, -8.592296], [119.870809, -8.592189], [119.870619, -8.591623], [119.870297, -8.590894], [119.86993, -8.589992], [119.869868, -8.589834], [119.869839, -8.589771], [119.869758, -8.589594], [119.869682, -8.589428], [119.869617, -8.589295], [119.869258, -8.588426], [119.869065, -8.58797], [119.868907, -8.587618], [119.868858, -8.587478], [119.868836, -8.587385], [119.868829, -8.587246], [119.868862, -8.586757], [119.868861, -8.58666], [119.868856, -8.586554], [119.868834, -8.586484], [119.868802, -8.586438], [119.86876, -8.586423], [119.868687, -8.586412], [119.868543, -8.586487], [119.86833, -8.586536], [119.868213, -8.586546], [119.868064, -8.586524], [119.867901, -8.586475], [119.867653, -8.586398], [119.867382, -8.586318], [119.867134, -8.586208], [119.866889, -8.586095], [119.866797, -8.586039], [119.866725, -8.585976], [119.86664, -8.58587], [119.866537, -8.585712], [119.866384, -8.585451], [119.866259, -8.585192], [119.866172, -8.584985], [119.866128, -8.584744], [119.866092, -8.58459], [119.86605, -8.584372], [119.866041, -8.584248], [119.866063, -8.584082], [119.866096, -8.583931], [119.866187, -8.583662], [119.866191, -8.58359], [119.86619, -8.583529], [119.866182, -8.583463], [119.866159, -8.583391], [119.866139, -8.583354], [119.866099, -8.58326], [119.86605, -8.583187], [119.866025, -8.583168], [119.865961, -8.583143], [119.865907, -8.583134], [119.865829, -8.583132], [119.865772, -8.583141], [119.865644, -8.583169], [119.8654, -8.583203], [119.865336, -8.583201], [119.865298, -8.583188], [119.865227, -8.583152], [119.865135, -8.583091], [119.865074, -8.583017], [119.864954, -8.582859], [119.86486, -8.582727], [119.864776, -8.582626], [119.864668, -8.582489], [119.864616, -8.582411], [119.864584, -8.582348], [119.864553, -8.582268], [119.864533, -8.582171], [119.864498, -8.582052], [119.864446, -8.58188], [119.864402, -8.581737], [119.86437, -8.581658], [119.864325, -8.581572], [119.864226, -8.581434], [119.864147, -8.581306], [119.864055, -8.581136], [119.864007, -8.58099], [119.863973, -8.580863], [119.863961, -8.580758], [119.86393, -8.580709], [119.863904, -8.580683], [119.863849, -8.580649], [119.863757, -8.58062], [119.863582, -8.580564], [119.863543, -8.580527], [119.863499, -8.580472], [119.863474, -8.580429], [119.863415, -8.58024], [119.863375, -8.580135], [119.863353, -8.5801], [119.863295, -8.580084], [119.863238, -8.580079], [119.863188, -8.580074], [119.863118, -8.580054], [119.863056, -8.580043], [119.863004, -8.580011], [119.862931, -8.579936], [119.862852, -8.579814], [119.862787, -8.579677], [119.86275, -8.579557], [119.862688, -8.579367], [119.862648, -8.5793], [119.862614, -8.579264], [119.862557, -8.579209], [119.862475, -8.579171], [119.862321, -8.579127], [119.862086, -8.579063], [119.861907, -8.579019], [119.861556, -8.578926], [119.861396, -8.578849], [119.861312, -8.578803], [119.861242, -8.578726], [119.86113, -8.578612], [119.861103, -8.5785], [119.861033, -8.578248], [119.861013, -8.578064], [119.861006, -8.577823], [119.86102, -8.577534], [119.861088, -8.577327], [119.861218, -8.577193], [119.861367, -8.577027], [119.861512, -8.576863], [119.861637, -8.576713], [119.861714, -8.576583], [119.861784, -8.576425], [119.861859, -8.576257], [119.861989, -8.575784], [119.862094, -8.575351], [119.862189, -8.575094], [119.86223, -8.574906], [119.862515, -8.573929], [119.862693, -8.573321], [119.862795, -8.572935], [119.862932, -8.572437], [119.862966, -8.572317], [119.862987, -8.572183], [119.863005, -8.571837], [119.863014, -8.571573]]}}]}